[{"OBJECT_NAME":"SWC-1","OBJECT_ID":"2026-069C","EPOCH":"2026-04-17T12:14:33.921312","MEAN_MOTION":1.01840683,"ECCENTRICITY":0.8357664,"INCLINATION":28.3533,"RA_OF_ASC_NODE":357.7706,"ARG_OF_PERICENTER":80.9928,"MEAN_ANOMALY":279.0715,"EPHEMERIS_TYPE":0,"CLASSIFICATION_TYPE":"U","NORAD_CAT_ID":68540,"ELEMENT_SET_NO":999,"REV_AT_EPOCH":16,"BSTAR":0,"MEAN_MOTION_DOT":-3.51e-6,"MEAN_MOTION_DDOT":0},{"OBJECT_NAME":"STARLINK-37326","OBJECT_ID":"2026-070A","EPOCH":"2026-04-29T14:05:22.327872","MEAN_MOTION":15.80949806,"ECCENTRICITY":0.0001584,"INCLINATION":53.1561,"RA_OF_ASC_NODE":129.3081,"ARG_OF_PERICENTER":42.4555,"MEAN_ANOMALY":317.659,"EPHEMERIS_TYPE":0,"CLASSIFICATION_TYPE":"U","NORAD_CAT_ID":68542,"ELEMENT_SET_NO":999,"REV_AT_EPOCH":430,"BSTAR":0.0009375,"MEAN_MOTION_DOT":0.0018911,"MEAN_MOTION_DDOT":0},{"OBJECT_NAME":"STARLINK-36308","OBJECT_ID":"2026-070B","EPOCH":"2026-04-29T12:33:15.122016","MEAN_MOTION":15.80987389,"ECCENTRICITY":0.00013343,"INCLINATION":53.1561,"RA_OF_ASC_NODE":129.6197,"ARG_OF_PERICENTER":100.5769,"MEAN_ANOMALY":259.5405,"EPHEMERIS_TYPE":0,"CLASSIFICATION_TYPE":"U","NORAD_CAT_ID":68543,"ELEMENT_SET_NO":999,"REV_AT_EPOCH":429,"BSTAR":0.0014607645,"MEAN_MOTION_DOT":0.00299404,"MEAN_MOTION_DDOT":0},{"OBJECT_NAME":"STARLINK-37263","OBJECT_ID":"2026-070C","EPOCH":"2026-04-29T20:00:01.999008","MEAN_MOTION":15.76972298,"ECCENTRICITY":7.44e-5,"INCLINATION":53.1578,"RA_OF_ASC_NODE":128.056,"ARG_OF_PERICENTER":102.3236,"MEAN_ANOMALY":228.2401,"EPHEMERIS_TYPE":0,"CLASSIFICATION_TYPE":"U","NORAD_CAT_ID":68544,"ELEMENT_SET_NO":999,"REV_AT_EPOCH":560,"BSTAR":-0.018146,"MEAN_MOTION_DOT":-0.02616472,"MEAN_MOTION_DDOT":0},{"OBJECT_NAME":"STARLINK-37289","OBJECT_ID":"2026-070D","EPOCH":"2026-04-29T20:00:01.999008","MEAN_MOTION":15.73619816,"ECCENTRICITY":7.25e-5,"INCLINATION":53.1593,"RA_OF_ASC_NODE":128.0999,"ARG_OF_PERICENTER":89.5629,"MEAN_ANOMALY":219.0503,"EPHEMERIS_TYPE":0,"CLASSIFICATION_TYPE":"U","NORAD_CAT_ID":68545,"ELEMENT_SET_NO":999,"REV_AT_EPOCH":560,"BSTAR":-0.015211,"MEAN_MOTION_DOT":-0.01890872,"MEAN_MOTION_DDOT":0},{"OBJECT_NAME":"STARLINK-37290","OBJECT_ID":"2026-070E","EPOCH":"2026-04-29T12:30:00.105120","MEAN_MOTION":15.80993692,"ECCENTRICITY":0.00037782,"INCLINATION":53.1558,"RA_OF_ASC_NODE":129.6039,"ARG_OF_PERICENTER":157.5607,"MEAN_ANOMALY":202.5582,"EPHEMERIS_TYPE":0,"CLASSIFICATION_TYPE":"U","NORAD_CAT_ID":68546,"ELEMENT_SET_NO":999,"REV_AT_EPOCH":429,"BSTAR":0.0014567637,"MEAN_MOTION_DOT":0.00298695,"MEAN_MOTION_DDOT":0},{"OBJECT_NAME":"STARLINK-37245","OBJECT_ID":"2026-070F","EPOCH":"2026-04-28T07:38:10.524768","MEAN_MOTION":15.81214418,"ECCENTRICITY":0.00029173,"INCLINATION":53.1572,"RA_OF_ASC_NODE":135.6138,"ARG_OF_PERICENTER":110.123,"MEAN_ANOMALY":250.0107,"EPHEMERIS_TYPE":0,"CLASSIFICATION_TYPE":"U","NORAD_CAT_ID":68547,"ELEMENT_SET_NO":999,"REV_AT_EPOCH":410,"BSTAR":0.0025294529,"MEAN_MOTION_DOT":0.00539381,"MEAN_MOTION_DDOT":0},{"OBJECT_NAME":"STARLINK-37145","OBJECT_ID":"2026-070G","EPOCH":"2026-04-29T12:27:51.398496","MEAN_MOTION":15.80881008,"ECCENTRICITY":0.00019721,"INCLINATION":53.1562,"RA_OF_ASC_NODE":129.5963,"ARG_OF_PERICENTER":23.5409,"MEAN_ANOMALY":336.5704,"EPHEMERIS_TYPE":0,"CLASSIFICATION_TYPE":"U","NORAD_CAT_ID":68548,"ELEMENT_SET_NO":999,"REV_AT_EPOCH":429,"BSTAR":8.6508249e-5,"MEAN_MOTION_DOT":0.00016413,"MEAN_MOTION_DDOT":0},{"OBJECT_NAME":"STARLINK-36204","OBJECT_ID":"2026-070H","EPOCH":"2026-04-29T20:00:01.999008","MEAN_MOTION":15.76611171,"ECCENTRICITY":7.41e-5,"INCLINATION":53.1578,"RA_OF_ASC_NODE":128.0236,"ARG_OF_PERICENTER":111.1885,"MEAN_ANOMALY":235.4272,"EPHEMERIS_TYPE":0,"CLASSIFICATION_TYPE":"U","NORAD_CAT_ID":68549,"ELEMENT_SET_NO":999,"REV_AT_EPOCH":555,"BSTAR":-0.017989,"MEAN_MOTION_DOT":-0.02502043,"MEAN_MOTION_DDOT":0},{"OBJECT_NAME":"STARLINK-36304","OBJECT_ID":"2026-070J","EPOCH":"2026-04-29T20:00:01.999008","MEAN_MOTION":15.76671213,"ECCENTRICITY":7.77e-5,"INCLINATION":53.1582,"RA_OF_ASC_NODE":128.0048,"ARG_OF_PERICENTER":86.5397,"MEAN_ANOMALY":268.8779,"EPHEMERIS_TYPE":0,"CLASSIFICATION_TYPE":"U","NORAD_CAT_ID":68550,"ELEMENT_SET_NO":999,"REV_AT_EPOCH":555,"BSTAR":-0.018418,"MEAN_MOTION_DOT":-0.02619636,"MEAN_MOTION_DDOT":0},{"OBJECT_NAME":"STARLINK-37288","OBJECT_ID":"2026-070K","EPOCH":"2026-04-29T20:00:01.999008","MEAN_MOTION":15.76939413,"ECCENTRICITY":7.09e-5,"INCLINATION":53.1582,"RA_OF_ASC_NODE":127.994,"ARG_OF_PERICENTER":94.8036,"MEAN_ANOMALY":265.5672,"EPHEMERIS_TYPE":0,"CLASSIFICATION_TYPE":"U","NORAD_CAT_ID":68551,"ELEMENT_SET_NO":999,"REV_AT_EPOCH":560,"BSTAR":-0.01815,"MEAN_MOTION_DOT":-0.02613615,"MEAN_MOTION_DDOT":0},{"OBJECT_NAME":"STARLINK-37295","OBJECT_ID":"2026-070L","EPOCH":"2026-04-29T20:00:01.999008","MEAN_MOTION":15.75501849,"ECCENTRICITY":8.17e-5,"INCLINATION":53.1585,"RA_OF_ASC_NODE":128.0209,"ARG_OF_PERICENTER":93.6025,"MEAN_ANOMALY":253.92,"EPHEMERIS_TYPE":0,"CLASSIFICATION_TYPE":"U","NORAD_CAT_ID":68552,"ELEMENT_SET_NO":999,"REV_AT_EPOCH":560,"BSTAR":-0.019155,"MEAN_MOTION_DOT":-0.02590638,"MEAN_MOTION_DDOT":0},{"OBJECT_NAME":"STARLINK-37254","OBJECT_ID":"2026-070M","EPOCH":"2026-04-29T12:21:22.138848","MEAN_MOTION":15.81005509,"ECCENTRICITY":0.00011399,"INCLINATION":53.1561,"RA_OF_ASC_NODE":129.5625,"ARG_OF_PERICENTER":81.6024,"MEAN_ANOMALY":278.5128,"EPHEMERIS_TYPE":0,"CLASSIFICATION_TYPE":"U","NORAD_CAT_ID":68553,"ELEMENT_SET_NO":999,"REV_AT_EPOCH":429,"BSTAR":0.0016141584,"MEAN_MOTION_DOT":0.00332485,"MEAN_MOTION_DDOT":0},{"OBJECT_NAME":"STARLINK-37255","OBJECT_ID":"2026-070N","EPOCH":"2026-04-29T20:00:01.999008","MEAN_MOTION":15.75770498,"ECCENTRICITY":8.02e-5,"INCLINATION":53.1586,"RA_OF_ASC_NODE":127.9745,"ARG_OF_PERICENTER":89.846,"MEAN_ANOMALY":279.9335,"EPHEMERIS_TYPE":0,"CLASSIFICATION_TYPE":"U","NORAD_CAT_ID":68554,"ELEMENT_SET_NO":999,"REV_AT_EPOCH":560,"BSTAR":-0.018982,"MEAN_MOTION_DOT":-0.02597016,"MEAN_MOTION_DDOT":0},{"OBJECT_NAME":"STARLINK-37146","OBJECT_ID":"2026-070P","EPOCH":"2026-04-29T13:53:29.426784","MEAN_MOTION":15.80929569,"ECCENTRICITY":0.000173,"INCLINATION":53.1564,"RA_OF_ASC_NODE":129.2507,"ARG_OF_PERICENTER":49.8844,"MEAN_ANOMALY":310.233,"EPHEMERIS_TYPE":0,"CLASSIFICATION_TYPE":"U","NORAD_CAT_ID":68555,"ELEMENT_SET_NO":999,"REV_AT_EPOCH":430,"BSTAR":0.00082344,"MEAN_MOTION_DOT":0.00165404,"MEAN_MOTION_DDOT":0},{"OBJECT_NAME":"STARLINK-37144","OBJECT_ID":"2026-070Q","EPOCH":"2026-04-29T12:18:06.276096","MEAN_MOTION":15.81118401,"ECCENTRICITY":0.00019963,"INCLINATION":53.1573,"RA_OF_ASC_NODE":129.5474,"ARG_OF_PERICENTER":68.3352,"MEAN_ANOMALY":291.7883,"EPHEMERIS_TYPE":0,"CLASSIFICATION_TYPE":"U","NORAD_CAT_ID":68556,"ELEMENT_SET_NO":999,"REV_AT_EPOCH":429,"BSTAR":0.0016069327,"MEAN_MOTION_DOT":0.00332726,"MEAN_MOTION_DDOT":0},{"OBJECT_NAME":"STARLINK-37210","OBJECT_ID":"2026-070R","EPOCH":"2026-04-29T12:19:12.409248","MEAN_MOTION":15.81020279,"ECCENTRICITY":0.00010445,"INCLINATION":53.1576,"RA_OF_ASC_NODE":129.5532,"ARG_OF_PERICENTER":84.6176,"MEAN_ANOMALY":275.4966,"EPHEMERIS_TYPE":0,"CLASSIFICATION_TYPE":"U","NORAD_CAT_ID":68557,"ELEMENT_SET_NO":999,"REV_AT_EPOCH":429,"BSTAR":0.0017112548,"MEAN_MOTION_DOT":0.00353647,"MEAN_MOTION_DDOT":0}]
