SWC-1                   
1 68540U 26069C   26107.51011483 -.00000351  00000+0  00000+0 0  9993
2 68540  28.3533 357.7706 8357664  80.9928 279.0715  1.01840683   168
STARLINK-37326          
1 68542U 26070A   26119.58706398  .00189110  00000+0  93750-3 0  9991
2 68542  53.1561 129.3081 0001584  42.4555 317.6590 15.80949806  4303
STARLINK-36308          
1 68543U 26070B   26119.52309169  .00299404  00000+0  14608-2 0  9993
2 68543  53.1561 129.6197 0001334 100.5769 259.5405 15.80987389  4296
STARLINK-37263          
1 68544U 26070C   26119.83335647 -.02616472  00000+0 -18146-1 0  9990
2 68544  53.1578 128.0560 0000744 102.3236 228.2401 15.76972298  5608
STARLINK-37289          
1 68545U 26070D   26119.83335647 -.01890872  00000+0 -15211-1 0  9998
2 68545  53.1593 128.0999 0000725  89.5629 219.0503 15.73619816  5605
STARLINK-37290          
1 68546U 26070E   26119.52083455  .00298695  00000+0  14568-2 0  9999
2 68546  53.1558 129.6039 0003778 157.5607 202.5582 15.80993692  4295
STARLINK-37245          
1 68547U 26070F   26118.31817737  .00539381  00000+0  25295-2 0  9993
2 68547  53.1572 135.6138 0002917 110.1230 250.0107 15.81214418  4104
STARLINK-37145          
1 68548U 26070G   26119.51934489  .00016413  00000+0  86508-4 0  9993
2 68548  53.1562 129.5963 0001972  23.5409 336.5704 15.80881008  4294
STARLINK-36204          
1 68549U 26070H   26119.83335647 -.02502043  00000+0 -17989-1 0  9997
2 68549  53.1578 128.0236 0000741 111.1885 235.4272 15.76611171  5558
STARLINK-36304          
1 68550U 26070J   26119.83335647 -.02619636  00000+0 -18418-1 0  9994
2 68550  53.1582 128.0048 0000777  86.5397 268.8779 15.76671213  5553
STARLINK-37288          
1 68551U 26070K   26119.83335647 -.02613615  00000+0 -18150-1 0  9999
2 68551  53.1582 127.9940 0000709  94.8036 265.5672 15.76939413  5601
STARLINK-37295          
1 68552U 26070L   26119.83335647 -.02590638  00000+0 -19155-1 0  9995
2 68552  53.1585 128.0209 0000817  93.6025 253.9200 15.75501849  5605
STARLINK-37254          
1 68553U 26070M   26119.51483957  .00332485  00000+0  16142-2 0  9993
2 68553  53.1561 129.5625 0001139  81.6024 278.5128 15.81005509  4297
STARLINK-37255          
1 68554U 26070N   26119.83335647 -.02597016  00000+0 -18982-1 0  9991
2 68554  53.1586 127.9745 0000802  89.8460 279.9335 15.75770498  5600
STARLINK-37146          
1 68555U 26070P   26119.57881281  .00165404  00000+0  82344-3 0  9996
2 68555  53.1564 129.2507 0001730  49.8844 310.2330 15.80929569  4302
STARLINK-37144          
1 68556U 26070Q   26119.51257264  .00332726  00000+0  16069-2 0  9992
2 68556  53.1573 129.5474 0001996  68.3352 291.7883 15.81118401  4293
STARLINK-37210          
1 68557U 26070R   26119.51333807  .00353647  00000+0  17113-2 0  9997
2 68557  53.1576 129.5532 0001044  84.6176 275.4966 15.81020279  4297
